[{"OBJECT_NAME":"STARLINK-33761","OBJECT_ID":"2025-069Y","EPOCH":"2026-03-09T11:19:25.899456","MEAN_MOTION":15.30211163,"ECCENTRICITY":0.0001032,"INCLINATION":53.1595,"RA_OF_ASC_NODE":143.3119,"ARG_OF_PERICENTER":71.7687,"MEAN_ANOMALY":288.3426,"EPHEMERIS_TYPE":0,"CLASSIFICATION_TYPE":"U","NORAD_CAT_ID":63455,"ELEMENT_SET_NO":999,"REV_AT_EPOCH":5337,"BSTAR":0.001022092,"MEAN_MOTION_DOT":0.00030045,"MEAN_MOTION_DDOT":0},{"OBJECT_NAME":"GEOSCAN 5 (RS92S5)","OBJECT_ID":"2025-155R","EPOCH":"2026-03-09T22:01:07.273920","MEAN_MOTION":15.30265233,"ECCENTRICITY":0.00070849,"INCLINATION":97.4462,"RA_OF_ASC_NODE":37.7456,"ARG_OF_PERICENTER":154.5846,"MEAN_ANOMALY":205.5745,"EPHEMERIS_TYPE":0,"CLASSIFICATION_TYPE":"U","NORAD_CAT_ID":64891,"ELEMENT_SET_NO":999,"REV_AT_EPOCH":6562,"BSTAR":0.00068639307,"MEAN_MOTION_DOT":0.00020065,"MEAN_MOTION_DDOT":0}]
